GLOBALSTAR M057         
1 25943U 99058A   24349.76410536 -.00000072  00000+0  18824-3 0  9993
2 25943  51.9955 151.5874 0002583  28.2172 331.8817 12.24805055144338
GLOBALSTAR M059         
1 25944U 99058B   24350.07972316 -.00000045  00000+0  51640-3 0  9992
2 25944  52.0043 345.2401 0000247 350.1402  36.6926 11.99973519140693
GLOBALSTAR M056         
1 25945U 99058C   24349.98257998 -.00000124  00000+0 -42838-3 0  9991
2 25945  51.9987 352.1894 0000851 173.0750 207.3976 12.04775744140465
GLOBALSTAR M031         
1 25946U 99058D   24350.14607470 -.00000017  00000+0  74398-3 0  9992
2 25946  51.9960 255.0949 0001477 125.1332  23.0053 12.16025390142399
GLOBALSTAR M039         
1 25961U 99062A   24349.75332819 -.00000112  00000+0 -43347-4 0  9999
2 25961  51.9838 110.4592 0001710 303.2379  56.8323 12.62313306156924
GLOBALSTAR M034         
1 25962U 99062B   24349.81347142 -.00000084  00000+0 -42291-4 0  9997
2 25962  51.9850 130.6495 0014814  57.0155  97.8942 11.79437432116630
GLOBALSTAR M029         
1 25963U 99062C   24349.74165240 -.00000032  00000+0  67692-3 0  9990
2 25963  51.9787 234.3511 0003386 100.5303 279.4975 11.99889003146984
GLOBALSTAR M061         
1 25964U 99062D   24350.05009940 -.00000055  00000+0  41580-3 0  9994
2 25964  51.9812 311.6280 0006298 342.3437  51.3178 11.76769005 99797
